STARLINK-1169           
1 45061U 20006T   25164.99442364  .00004515  00000+0  32151-3 0  9992
2 45061  53.0557  52.8402 0001300  96.7958 263.3179 15.06431036295963
STARLINK-1171           
1 45062U 20006U   25165.37775904  .00004510  00000+0  32123-3 0  9999
2 45062  53.0545  51.1137 0001106  86.9035 273.2080 15.06427678296025
STARLINK-1133           
1 45064U 20006W   25165.58971183  .00000575  00000+0  57443-4 0  9991
2 45064  53.0542  30.1633 0000878  74.7685 285.3401 15.06409668296685
STARLINK-1150           
1 45067U 20006Z   25165.34221729  .00096209  00000+0  12200-2 0  9991
2 45067  53.0533  25.1838 0000773 156.1296 203.9752 15.58693842296384
STARLINK-1161           
1 45068U 20006AA  25165.44018011  .00273913  00000+0  96087-3 0  9996
2 45068  53.0166 321.5275 0004058 203.6871 156.3966 15.87959319297275
STARLINK-1167           
1 45071U 20006AD  25165.88092402 -.00001013  00000+0 -49148-4 0  9993
2 45071  53.0543  28.8619 0001181  93.1115 267.0009 15.06380832296719
STARLINK-1168           
1 45072U 20006AE  25165.35383247 -.00007097  00000+0 -45817-3 0  9992
2 45072  53.0528  31.2255 0002746  86.2922 273.8381 15.06381840296295
STARLINK-1170           
1 45073U 20006AF  25165.58233264  .00246713  11888-4  10000-3 0  9996
2 45073  53.0276 328.1790 0007973 272.6266 207.1549 16.22813654297522
STARLINK-1172           
1 45074U 20006AG  25165.89566606 -.00002692  00000+0 -16193-3 0  9996
2 45074  53.0556  28.7945 0001765  92.4656 267.6535 15.06386012296724
STARLINK-1153           
1 45080U 20006AN  25165.34275375 -.00000227  00000+0  36714-5 0  9997
2 45080  53.0553  31.2766 0000982  73.3055 286.8041 15.06408858296299
STARLINK-1151           
1 45081U 20006AP  25165.32803576 -.00007068  00000+0 -45608-3 0  9997
2 45081  53.0533  31.4166 0001500  82.5638 277.5522 15.06398480296290
STARLINK-1190           
1 45083U 20006AR  25165.67557649  .00324871  00000+0  63942-2 0  9996
2 45083  53.0549  42.0880 0000856 116.7107 243.3987 15.45522885296516
STARLINK-1173           
1 45084U 20006AS  25165.86438637  .00406662  00000+0  10559-1 0  9997
2 45084  53.0580   6.2525 0001322 108.6129 251.5017 15.36823711297140
STARLINK-1179           
1 45085U 20006AT  25165.86853702  .00258965  00000+0  34129-2 0  9993
2 45085  53.0533   3.4672 0000272 173.6860 186.4154 15.57029918297078
