[
  {
    "OBJECT_NAME": "STARLINK-1169",
    "OBJECT_ID": "2020-006T",
    "EPOCH": "2025-06-13T23:51:58.202496",
    "MEAN_MOTION": 15.06431036,
    "ECCENTRICITY": 0.00013,
    "INCLINATION": 53.0557,
    "RA_OF_ASC_NODE": 52.8402,
    "ARG_OF_PERICENTER": 96.7958,
    "MEAN_ANOMALY": 263.3179,
    "EPHEMERIS_TYPE": 0,
    "CLASSIFICATION_TYPE": "U",
    "NORAD_CAT_ID": 45061,
    "ELEMENT_SET_NO": 999,
    "REV_AT_EPOCH": 29596,
    "BSTAR": 0.00032151,
    "MEAN_MOTION_DOT": 4.515e-05,
    "MEAN_MOTION_DDOT": 0
  },
  {
    "OBJECT_NAME": "STARLINK-1171",
    "OBJECT_ID": "2020-006U",
    "EPOCH": "2025-06-14T09:03:58.381056",
    "MEAN_MOTION": 15.06427678,
    "ECCENTRICITY": 0.0001106,
    "INCLINATION": 53.0545,
    "RA_OF_ASC_NODE": 51.1137,
    "ARG_OF_PERICENTER": 86.9035,
    "MEAN_ANOMALY": 273.208,
    "EPHEMERIS_TYPE": 0,
    "CLASSIFICATION_TYPE": "U",
    "NORAD_CAT_ID": 45062,
    "ELEMENT_SET_NO": 999,
    "REV_AT_EPOCH": 29602,
    "BSTAR": 0.00032123,
    "MEAN_MOTION_DOT": 4.51e-05,
    "MEAN_MOTION_DDOT": 0
  },
  {
    "OBJECT_NAME": "STARLINK-1133",
    "OBJECT_ID": "2020-006W",
    "EPOCH": "2025-06-14T14:09:11.102112",
    "MEAN_MOTION": 15.06409668,
    "ECCENTRICITY": 8.78e-05,
    "INCLINATION": 53.0542,
    "RA_OF_ASC_NODE": 30.1633,
    "ARG_OF_PERICENTER": 74.7685,
    "MEAN_ANOMALY": 285.3401,
    "EPHEMERIS_TYPE": 0,
    "CLASSIFICATION_TYPE": "U",
    "NORAD_CAT_ID": 45064,
    "ELEMENT_SET_NO": 999,
    "REV_AT_EPOCH": 29668,
    "BSTAR": 5.7443e-05,
    "MEAN_MOTION_DOT": 5.75e-06,
    "MEAN_MOTION_DDOT": 0
  },
  {
    "OBJECT_NAME": "STARLINK-1150",
    "OBJECT_ID": "2020-006Z",
    "EPOCH": "2025-06-14T08:12:47.573856",
    "MEAN_MOTION": 15.58693842,
    "ECCENTRICITY": 7.73e-05,
    "INCLINATION": 53.0533,
    "RA_OF_ASC_NODE": 25.1838,
    "ARG_OF_PERICENTER": 156.1296,
    "MEAN_ANOMALY": 203.9752,
    "EPHEMERIS_TYPE": 0,
    "CLASSIFICATION_TYPE": "U",
    "NORAD_CAT_ID": 45067,
    "ELEMENT_SET_NO": 999,
    "REV_AT_EPOCH": 29638,
    "BSTAR": 0.00122,
    "MEAN_MOTION_DOT": 0.00096209,
    "MEAN_MOTION_DDOT": 0
  },
  {
    "OBJECT_NAME": "STARLINK-1161",
    "OBJECT_ID": "2020-006AA",
    "EPOCH": "2025-06-14T10:33:51.561504",
    "MEAN_MOTION": 15.87959319,
    "ECCENTRICITY": 0.0004058,
    "INCLINATION": 53.0166,
    "RA_OF_ASC_NODE": 321.5275,
    "ARG_OF_PERICENTER": 203.6871,
    "MEAN_ANOMALY": 156.3966,
    "EPHEMERIS_TYPE": 0,
    "CLASSIFICATION_TYPE": "U",
    "NORAD_CAT_ID": 45068,
    "ELEMENT_SET_NO": 999,
    "REV_AT_EPOCH": 29727,
    "BSTAR": 0.00096087,
    "MEAN_MOTION_DOT": 0.00273913,
    "MEAN_MOTION_DDOT": 0
  },
  {
    "OBJECT_NAME": "STARLINK-1167",
    "OBJECT_ID": "2020-006AD",
    "EPOCH": "2025-06-14T21:08:31.835328",
    "MEAN_MOTION": 15.06380832,
    "ECCENTRICITY": 0.0001181,
    "INCLINATION": 53.0543,
    "RA_OF_ASC_NODE": 28.8619,
    "ARG_OF_PERICENTER": 93.1115,
    "MEAN_ANOMALY": 267.0009,
    "EPHEMERIS_TYPE": 0,
    "CLASSIFICATION_TYPE": "U",
    "NORAD_CAT_ID": 45071,
    "ELEMENT_SET_NO": 999,
    "REV_AT_EPOCH": 29671,
    "BSTAR": -4.9148e-05,
    "MEAN_MOTION_DOT": -1.013e-05,
    "MEAN_MOTION_DDOT": 0
  },
  {
    "OBJECT_NAME": "STARLINK-1168",
    "OBJECT_ID": "2020-006AE",
    "EPOCH": "2025-06-14T08:29:31.125408",
    "MEAN_MOTION": 15.0638184,
    "ECCENTRICITY": 0.0002746,
    "INCLINATION": 53.0528,
    "RA_OF_ASC_NODE": 31.2255,
    "ARG_OF_PERICENTER": 86.2922,
    "MEAN_ANOMALY": 273.8381,
    "EPHEMERIS_TYPE": 0,
    "CLASSIFICATION_TYPE": "U",
    "NORAD_CAT_ID": 45072,
    "ELEMENT_SET_NO": 999,
    "REV_AT_EPOCH": 29629,
    "BSTAR": -0.00045817,
    "MEAN_MOTION_DOT": -7.097e-05,
    "MEAN_MOTION_DDOT": 0
  },
  {
    "OBJECT_NAME": "STARLINK-1170",
    "OBJECT_ID": "2020-006AF",
    "EPOCH": "2025-06-14T13:58:33.540096",
    "MEAN_MOTION": 16.22813654,
    "ECCENTRICITY": 0.0007973,
    "INCLINATION": 53.0276,
    "RA_OF_ASC_NODE": 328.179,
    "ARG_OF_PERICENTER": 272.6266,
    "MEAN_ANOMALY": 207.1549,
    "EPHEMERIS_TYPE": 0,
    "CLASSIFICATION_TYPE": "U",
    "NORAD_CAT_ID": 45073,
    "ELEMENT_SET_NO": 999,
    "REV_AT_EPOCH": 29752,
    "BSTAR": 0.0001,
    "MEAN_MOTION_DOT": 0.00246713,
    "MEAN_MOTION_DDOT": 1.1888e-05
  },
  {
    "OBJECT_NAME": "STARLINK-1172",
    "OBJECT_ID": "2020-006AG",
    "EPOCH": "2025-06-14T21:29:45.547584",
    "MEAN_MOTION": 15.06386012,
    "ECCENTRICITY": 0.0001765,
    "INCLINATION": 53.0556,
    "RA_OF_ASC_NODE": 28.7945,
    "ARG_OF_PERICENTER": 92.4656,
    "MEAN_ANOMALY": 267.6535,
    "EPHEMERIS_TYPE": 0,
    "CLASSIFICATION_TYPE": "U",
    "NORAD_CAT_ID": 45074,
    "ELEMENT_SET_NO": 999,
    "REV_AT_EPOCH": 29672,
    "BSTAR": -0.00016193,
    "MEAN_MOTION_DOT": -2.692e-05,
    "MEAN_MOTION_DDOT": 0
  },
  {
    "OBJECT_NAME": "STARLINK-1153",
    "OBJECT_ID": "2020-006AN",
    "EPOCH": "2025-06-14T08:13:33.924000",
    "MEAN_MOTION": 15.06408858,
    "ECCENTRICITY": 9.82e-05,
    "INCLINATION": 53.0553,
    "RA_OF_ASC_NODE": 31.2766,
    "ARG_OF_PERICENTER": 73.3055,
    "MEAN_ANOMALY": 286.8041,
    "EPHEMERIS_TYPE": 0,
    "CLASSIFICATION_TYPE": "U",
    "NORAD_CAT_ID": 45080,
    "ELEMENT_SET_NO": 999,
    "REV_AT_EPOCH": 29629,
    "BSTAR": 3.6714e-06,
    "MEAN_MOTION_DOT": -2.27e-06,
    "MEAN_MOTION_DDOT": 0
  },
  {
    "OBJECT_NAME": "STARLINK-1151",
    "OBJECT_ID": "2020-006AP",
    "EPOCH": "2025-06-14T07:52:22.289664",
    "MEAN_MOTION": 15.0639848,
    "ECCENTRICITY": 0.00015,
    "INCLINATION": 53.0533,
    "RA_OF_ASC_NODE": 31.4166,
    "ARG_OF_PERICENTER": 82.5638,
    "MEAN_ANOMALY": 277.5522,
    "EPHEMERIS_TYPE": 0,
    "CLASSIFICATION_TYPE": "U",
    "NORAD_CAT_ID": 45081,
    "ELEMENT_SET_NO": 999,
    "REV_AT_EPOCH": 29629,
    "BSTAR": -0.00045608,
    "MEAN_MOTION_DOT": -7.068e-05,
    "MEAN_MOTION_DDOT": 0
  },
  {
    "OBJECT_NAME": "STARLINK-1190",
    "OBJECT_ID": "2020-006AR",
    "EPOCH": "2025-06-14T16:12:49.808736",
    "MEAN_MOTION": 15.45522885,
    "ECCENTRICITY": 8.56e-05,
    "INCLINATION": 53.0549,
    "RA_OF_ASC_NODE": 42.088,
    "ARG_OF_PERICENTER": 116.7107,
    "MEAN_ANOMALY": 243.3987,
    "EPHEMERIS_TYPE": 0,
    "CLASSIFICATION_TYPE": "U",
    "NORAD_CAT_ID": 45083,
    "ELEMENT_SET_NO": 999,
    "REV_AT_EPOCH": 29651,
    "BSTAR": 0.0063942,
    "MEAN_MOTION_DOT": 0.00324871,
    "MEAN_MOTION_DDOT": 0
  },
  {
    "OBJECT_NAME": "STARLINK-1173",
    "OBJECT_ID": "2020-006AS",
    "EPOCH": "2025-06-14T20:44:42.982368",
    "MEAN_MOTION": 15.36823711,
    "ECCENTRICITY": 0.0001322,
    "INCLINATION": 53.058,
    "RA_OF_ASC_NODE": 6.2525,
    "ARG_OF_PERICENTER": 108.6129,
    "MEAN_ANOMALY": 251.5017,
    "EPHEMERIS_TYPE": 0,
    "CLASSIFICATION_TYPE": "U",
    "NORAD_CAT_ID": 45084,
    "ELEMENT_SET_NO": 999,
    "REV_AT_EPOCH": 29714,
    "BSTAR": 0.010559,
    "MEAN_MOTION_DOT": 0.00406662,
    "MEAN_MOTION_DDOT": 0
  },
  {
    "OBJECT_NAME": "STARLINK-1179",
    "OBJECT_ID": "2020-006AT",
    "EPOCH": "2025-06-14T20:50:41.598528",
    "MEAN_MOTION": 15.57029918,
    "ECCENTRICITY": 2.72e-05,
    "INCLINATION": 53.0533,
    "RA_OF_ASC_NODE": 3.4672,
    "ARG_OF_PERICENTER": 173.686,
    "MEAN_ANOMALY": 186.4154,
    "EPHEMERIS_TYPE": 0,
    "CLASSIFICATION_TYPE": "U",
    "NORAD_CAT_ID": 45085,
    "ELEMENT_SET_NO": 999,
    "REV_AT_EPOCH": 29707,
    "BSTAR": 0.0034129,
    "MEAN_MOTION_DOT": 0.00258965,
    "MEAN_MOTION_DDOT": 0
  }
]